PROBA-1                 
1 26958U 01049B   26185.32780961  .00002306  00000+0  15085-3 0  9994
2 26958  97.9596 194.4598 0056358  65.7233 294.9867 15.07570853346201
CUTE-1 (CO-55)          
1 27844U 03031E   26185.24788263  .00000339  00000+0  16569-3 0  9998
2 27844  98.6737 193.5921 0010495 131.0511 229.1577 14.24346436194103
CUBESAT XI-IV (CO-57)   
1 27848U 03031J   26184.96377740  .00000284  00000+0  14382-3 0  9994
2 27848  98.6769 193.0109 0010047 149.1392 211.0379 14.23629930193768
APRIZESAT 4             
1 35684U 09041D   26184.77770608  .00000830  00000+0  10555-3 0  9992
2 35684  98.1409 260.4287 0041893 267.6843  91.9574 14.83901692913820
APRIZESAT 3             
1 35686U 09041F   26185.15175865  .00001384  00000+0  12380-3 0  9994
2 35686  98.2080 339.1904 0061751  12.1152 348.1536 14.96286521918910
PROBA-2                 
1 36037U 09059B   26185.22800851  .00000234  00000+0  64993-4 0  9993
2 36037  98.2455   8.3448 0012306 224.1448 135.8768 14.54870040884009
APRIZESAT 5             
1 37792U 11044E   26184.76166404  .00001181  00000+0  15635-3 0  9996
2 37792  98.2450 118.2722 0051089 310.4764  49.2000 14.81111495801244
APRIZESAT 6             
1 37793U 11044F   26185.00864773  .00000993  00000+0  14684-3 0  9992
2 37793  98.2349  95.8509 0043911  33.6747 347.0397 14.76943409799634
PROBA-V                 
1 39159U 13021A   26185.19832594  .00000138  00000+0  78395-4 0  9994
2 39159  98.3595 162.9659 0005425  84.6690 275.5108 14.23601538683531
APRIZESAT 7             
1 39416U 13066A   26185.12638247  .00001198  00000+0  12361-3 0  9998
2 39416  97.7717 138.1036 0036488 152.9057 207.4076 14.91600562683752
APRIZESAT 8             
1 39425U 13066K   26184.82211913  .00001015  00000+0  11574-3 0  9994
2 39425  97.8225 132.0587 0044659 229.9830 129.7463 14.87682208682144
BUGSAT-1 (TITA)         
1 40014U 14033E   26185.26710797  .00007884  00000+0  41248-3 0  9999
2 40014  98.0433 278.8166 0028921 121.6361 238.7698 15.15784484658423
SAUDISAT 4              
1 40016U 14033G   26184.41744640  .00000693  00000+0  97936-4 0  9998
2 40016  97.7604 329.9924 0045252  22.3541 337.9630 14.79565255648478
APRIZESAT 9             
1 40018U 14033J   26185.10818859  .00000922  00000+0  14228-3 0  9998
2 40018  97.9082 317.8950 0066949 144.9700 215.5940 14.74240561646053
APRIZESAT 10            
1 40019U 14033K   26184.31715138  .00000649  00000+0  10961-3 0  9993
2 40019  97.9670 310.9186 0077871 221.5254 138.0021 14.70899392644622
TECHDEMOSAT-1 (TDS-1)   
1 40076U 14037H   26185.21663992  .00010751  00000+0  60328-3 0  9997
2 40076  98.3818 179.1203 0005846 194.6994 165.4066 15.13554427650808
TECHNOSAT               
1 42829U 17042E   26184.87093637  .00003285  00000+0  23451-3 0  9998
2 42829  97.4295 341.8960 0018427  40.8087 319.4516 15.05054378489214
FLYING LAPTOP           
1 42831U 17042G   26185.31593222  .00003180  00000+0  25097-3 0  9998
2 42831  97.4771 340.1975 0019966  67.1205 293.2125 15.01255339489027
HAWK-A                  
1 43765U 18099H   26184.95181778  .00008552  00000+0  34166-3 0  9991
2 43765  97.3901 236.9701 0033669 224.0922 135.7631 15.24846517415652
HAWK-B                  
1 43794U 18099AN  26185.12480850  .00007317  00000+0  31007-3 0  9995
2 43794  97.3944 236.5206 0030504 242.2439 117.5703 15.23012549415610
HAWK-C                  
1 43799U 18099AT  26185.08666369  .00010441  00000+0  37223-3 0  9994
2 43799  97.3875 238.0993 0039273 223.6179 136.1955 15.28347981416493
SALSAT                  
1 46495U 20068K   26184.95457312  .00009251  00000+0  32069-3 0  9990
2 46495  97.8853 189.0427 0008159 236.6445 123.4014 15.30040776317924
HAWK-2C                 
1 47502U 21006CT  26184.71288687  .00007875  00000+0  23496-3 0  9998
2 47502  97.2263 228.6938 0008268 133.8765 226.3163 15.34868923302034
HAWK-2A                 
1 47505U 21006CW  26184.71522108  .00007927  00000+0  23643-3 0  9992
2 47505  97.2307 229.3838 0007698 136.7308 223.4541 15.34883344302036
HAWK-2B                 
1 47508U 21006CZ  26185.10081093  .00009362  00000+0  27764-3 0  9995
2 47508  97.2176 228.0668 0008303 133.9781 226.2149 15.35005144302094
HAWK-3B                 
1 48931U 21059BE  26185.02049111  .00052222  00000+0  41664-3 0  9998
2 48931  97.6639  23.3372 0003495 242.5964 117.4942 15.70996652280491
HAWK-3C                 
1 48948U 21059BX  26184.82908216  .00046359  00000+0  37060-3 0  9992
2 48948  97.6758  28.8415 0003695 245.7637 114.3239 15.70972874280465
HAWK-3A                 
1 48957U 21059CG  26184.82896622  .00047048  00000+0  37609-3 0  9994
2 48957  97.6707  26.0328 0003701 248.6947 111.3920 15.70971081280469
HAWK-5C                 
1 52754U 22057Y   26184.68223850  .00020903  00000+0  34890-3 0  9994
2 52754  97.6615 345.4208 0003869  28.4224 331.7238 15.51980727228906
HAWK-5B                 
1 52756U 22057AA  26184.42415424  .00020143  00000+0  33637-3 0  9992
2 52756  97.6628 343.4968 0004439  18.9013 341.2403 15.51973960228863
